{
  "type": "FeatureCollection",
  "features": [
    {
      "type": "Feature",
      "properties": {
        "norad_id": 41773,
        "name": "SKYSAT-C2",
        "group": "resource",
        "lat": -16.147778491923386,
        "lon": -156.96691424030354,
        "alt_km": 459.73976871753894,
        "timestamp": "2025-12-27T03:58:43.835474+00:00",
        "meta_object_name": "SKYSAT-C2",
        "meta_object_id": "2016-058D",
        "meta_epoch": "2025-12-26T14:37:58.926720",
        "meta_mean_motion": 15.37583734,
        "meta_eccentricity": 0.0002572,
        "meta_inclination": 97.0353,
        "meta_ra_of_asc_node": 24.5495,
        "meta_arg_of_pericenter": 351.2382,
        "meta_mean_anomaly": 8.8818,
        "meta_ephemeris_type": 0,
        "meta_classification_type": "U",
        "meta_norad_cat_id": 41773,
        "meta_element_set_no": 999,
        "meta_rev_at_epoch": 51849,
        "meta_bstar": 0.00034081,
        "meta_mean_motion_dot": 0.000125,
        "meta_mean_motion_ddot": 0,
        "tle_line1": "1 41773U 16058D   25360.60970980  .00012500  00000+0  34081-3 0  9993",
        "tle_line2": "2 41773  97.0353  24.5495 0002572 351.2382   8.8818 15.37583734518496"
      },
      "geometry": {
        "type": "Point",
        "coordinates": [
          -156.96691424030354,
          -16.147778491923386
        ]
      }
    },
    {
      "type": "Feature",
      "properties": {
        "norad_id": 41774,
        "name": "SKYSAT-C3",
        "group": "resource",
        "lat": 38.55091930046697,
        "lon": 28.681469755120784,
        "alt_km": 428.2386077684987,
        "timestamp": "2025-12-27T03:58:43.835484+00:00",
        "meta_object_name": "SKYSAT-C3",
        "meta_object_id": "2016-058E",
        "meta_epoch": "2025-12-26T15:22:29.771040",
        "meta_mean_motion": 15.44897562,
        "meta_eccentricity": 0.0002158,
        "meta_inclination": 96.9285,
        "meta_ra_of_asc_node": 33.7414,
        "meta_arg_of_pericenter": 106.7357,
        "meta_mean_anomaly": 253.413,
        "meta_ephemeris_type": 0,
        "meta_classification_type": "U",
        "meta_norad_cat_id": 41774,
        "meta_element_set_no": 999,
        "meta_rev_at_epoch": 51940,
        "meta_bstar": 0.00041358,
        "meta_mean_motion_dot": 0.00019372,
        "meta_mean_motion_ddot": 0,
        "tle_line1": "1 41774U 16058E   25360.64062235  .00019372  00000+0  41358-3 0  9992",
        "tle_line2": "2 41774  96.9285  33.7414 0002158 106.7357 253.4130 15.44897562519409"
      },
      "geometry": {
        "type": "Point",
        "coordinates": [
          28.681469755120784,
          38.55091930046697
        ]
      }
    },
    {
      "type": "Feature",
      "properties": {
        "norad_id": 41785,
        "name": "ALSAT 1B",
        "group": "resource",
        "lat": 80.49308892845494,
        "lon": -112.92958826872595,
        "alt_km": 640.6337167000029,
        "timestamp": "2025-12-27T03:58:43.835493+00:00",
        "meta_object_name": "ALSAT 1B",
        "meta_object_id": "2016-059C",
        "meta_epoch": "2025-12-26T21:01:20.331264",
        "meta_mean_motion": 14.72090442,
        "meta_eccentricity": 0.0010711,
        "meta_inclination": 97.7812,
        "meta_ra_of_asc_node": 12.055,
        "meta_arg_of_pericenter": 63.9641,
        "meta_mean_anomaly": 296.2669,
        "meta_ephemeris_type": 0,
        "meta_classification_type": "U",
        "meta_norad_cat_id": 41785,
        "meta_element_set_no": 999,
        "meta_rev_at_epoch": 49522,
        "meta_bstar": 0.00011926,
        "meta_mean_motion_dot": 7.03e-06,
        "meta_mean_motion_ddot": 0,
        "tle_line1": "1 41785U 16059C   25360.87592976  .00000703  00000+0  11926-3 0  9996",
        "tle_line2": "2 41785  97.7812  12.0550 0010711  63.9641 296.2669 14.72090442495228"
      },
      "geometry": {
        "type": "Point",
        "coordinates": [
          -112.92958826872595,
          80.49308892845494
        ]
      }
    },
    {
      "type": "Feature",
      "properties": {
        "norad_id": 41787,
        "name": "PATHFINDER 1",
        "group": "resource",
        "lat": -71.00676463402881,
        "lon": 26.783479223188476,
        "alt_km": 683.7839961608415,
        "timestamp": "2025-12-27T03:58:43.835502+00:00",
        "meta_object_name": "PATHFINDER 1",
        "meta_object_id": "2016-059E",
        "meta_epoch": "2025-12-26T13:34:46.547328",
        "meta_mean_motion": 14.67345556,
        "meta_eccentricity": 0.0029523,
        "meta_inclination": 97.8139,
        "meta_ra_of_asc_node": 2.6979,
        "meta_arg_of_pericenter": 38.9477,
        "meta_mean_anomaly": 321.3847,
        "meta_ephemeris_type": 0,
        "meta_classification_type": "U",
        "meta_norad_cat_id": 41787,
        "meta_element_set_no": 999,
        "meta_rev_at_epoch": 49439,
        "meta_bstar": 0.00017286,
        "meta_mean_motion_dot": 9.36e-06,
        "meta_mean_motion_ddot": 0,
        "tle_line1": "1 41787U 16059E   25360.56581652  .00000936  00000+0  17286-3 0  9996",
        "tle_line2": "2 41787  97.8139   2.6979 0029523  38.9477 321.3847 14.67345556494391"
      },
      "geometry": {
        "type": "Point",
        "coordinates": [
          26.783479223188476,
          -71.00676463402881
        ]
      }
    },
    {
      "type": "Feature",
      "properties": {
        "norad_id": 41790,
        "name": "SCATSAT 1",
        "group": "resource",
        "lat": 15.425573080840946,
        "lon": -119.7203662563188,
        "alt_km": 627.4612933119297,
        "timestamp": "2025-12-27T03:58:43.835511+00:00",
        "meta_object_name": "SCATSAT 1",
        "meta_object_id": "2016-059H",
        "meta_epoch": "2025-12-26T14:15:15.732576",
        "meta_mean_motion": 14.78980653,
        "meta_eccentricity": 0.005643,
        "meta_inclination": 98.1445,
        "meta_ra_of_asc_node": 57.4361,
        "meta_arg_of_pericenter": 84.3615,
        "meta_mean_anomaly": 276.4027,
        "meta_ephemeris_type": 0,
        "meta_classification_type": "U",
        "meta_norad_cat_id": 41790,
        "meta_element_set_no": 999,
        "meta_rev_at_epoch": 7607,
        "meta_bstar": 0.00021562,
        "meta_mean_motion_dot": 1.578e-05,
        "meta_mean_motion_ddot": 0,
        "tle_line1": "1 41790U 16059H   25360.59393209  .00001578  00000+0  21562-3 0  9997",
        "tle_line2": "2 41790  98.1445  57.4361 0056430  84.3615 276.4027 14.78980653 76074"
      },
      "geometry": {
        "type": "Point",
        "coordinates": [
          -119.7203662563188,
          15.425573080840946
        ]
      }
    },
    {
      "type": "Feature",
      "properties": {
        "norad_id": 41875,
        "name": "GOKTURK 1A",
        "group": "resource",
        "lat": 49.6740538328747,
        "lon": 83.04900014641755,
        "alt_km": 679.0227414049878,
        "timestamp": "2025-12-27T03:58:43.835520+00:00",
        "meta_object_name": "GOKTURK 1A",
        "meta_object_id": "2016-073A",
        "meta_epoch": "2025-12-26T20:49:19.177248",
        "meta_mean_motion": 14.62795916,
        "meta_eccentricity": 0.0001296,
        "meta_inclination": 98.1423,
        "meta_ra_of_asc_node": 253.0447,
        "meta_arg_of_pericenter": 82.6667,
        "meta_mean_anomaly": 277.4682,
        "meta_ephemeris_type": 0,
        "meta_classification_type": "U",
        "meta_norad_cat_id": 41875,
        "meta_element_set_no": 999,
        "meta_rev_at_epoch": 48363,
        "meta_bstar": 0.00012135,
        "meta_mean_motion_dot": 5.72e-06,
        "meta_mean_motion_ddot": 0,
        "tle_line1": "1 41875U 16073A   25360.86758307  .00000572  00000+0  12135-3 0  9990",
        "tle_line2": "2 41875  98.1423 253.0447 0001296  82.6667 277.4682 14.62795916483632"
      },
      "geometry": {
        "type": "Point",
        "coordinates": [
          83.04900014641755,
          49.6740538328747
        ]
      }
    },
    {
      "type": "Feature",
      "properties": {
        "norad_id": 41877,
        "name": "RESOURCESAT-2A",
        "group": "resource",
        "lat": -23.0300330575508,
        "lon": -112.82766394850603,
        "alt_km": 824.1072646010762,
        "timestamp": "2025-12-27T03:58:43.835529+00:00",
        "meta_object_name": "RESOURCESAT-2A",
        "meta_object_id": "2016-074A",
        "meta_epoch": "2025-12-26T20:16:09.004224",
        "meta_mean_motion": 14.21605023,
        "meta_eccentricity": 0.0001683,
        "meta_inclination": 98.7733,
        "meta_ra_of_asc_node": 70.6171,
        "meta_arg_of_pericenter": 195.2017,
        "meta_mean_anomaly": 164.9109,
        "meta_ephemeris_type": 0,
        "meta_classification_type": "U",
        "meta_norad_cat_id": 41877,
        "meta_element_set_no": 999,
        "meta_rev_at_epoch": 46981,
        "meta_bstar": 2.349e-05,
        "meta_mean_motion_dot": 7e-08,
        "meta_mean_motion_ddot": 0,
        "tle_line1": "1 41877U 16074A   25360.84454866  .00000007  00000+0  23490-4 0  9994",
        "tle_line2": "2 41877  98.7733  70.6171 0001683 195.2017 164.9109 14.21605023469813"
      },
      "geometry": {
        "type": "Point",
        "coordinates": [
          -112.82766394850603,
          -23.0300330575508
        ]
      }
    }
  ]
}